STARLINK-36891
1 68024U 26040K   26092.83335647 -.01903029  00000+0 -30670-1 0  9992
2 68024  97.2853  42.4213 0001507  97.5618 217.0703 15.56306921  6106
